[{"OBJECT_NAME":"TIANQI-28","OBJECT_ID":"2024-102D","EPOCH":"2026-03-09T22:51:16.709472","MEAN_MOTION":13.99129757,"ECCENTRICITY":0.00101507,"INCLINATION":44.9805,"RA_OF_ASC_NODE":343.2234,"ARG_OF_PERICENTER":142.3431,"MEAN_ANOMALY":217.8114,"EPHEMERIS_TYPE":0,"CLASSIFICATION_TYPE":"U","NORAD_CAT_ID":59912,"ELEMENT_SET_NO":999,"REV_AT_EPOCH":9100,"BSTAR":0.00025291136,"MEAN_MOTION_DOT":2.4e-6,"MEAN_MOTION_DDOT":0},{"OBJECT_NAME":"FENGYUN 1C DEB","OBJECT_ID":"1999-025BQT","EPOCH":"2026-03-08T23:44:43.117152","MEAN_MOTION":14.12494472,"ECCENTRICITY":0.00758054,"INCLINATION":98.71,"RA_OF_ASC_NODE":87.2551,"ARG_OF_PERICENTER":80.1904,"MEAN_ANOMALY":280.7817,"EPHEMERIS_TYPE":0,"CLASSIFICATION_TYPE":"U","NORAD_CAT_ID":31339,"ELEMENT_SET_NO":999,"REV_AT_EPOCH":96895,"BSTAR":0.0010542528,"MEAN_MOTION_DOT":1.959e-5,"MEAN_MOTION_DDOT":0}]
